OBJECT_NAME,OBJECT_ID,EPOCH,MEAN_MOTION,ECCENTRICITY,INCLINATION,RA_OF_ASC_NODE,ARG_OF_PERICENTER,MEAN_ANOMALY,EPHEMERIS_TYPE,CLASSIFICATION_TYPE,NORAD_CAT_ID,ELEMENT_SET_NO,REV_AT_EPOCH,BSTAR,MEAN_MOTION_DOT,MEAN_MOTION_DDOT
ONEWEB-0597,2022-166X,2026-07-02T04:47:46.386816,13.21827754,.00019612,87.9244,241.0002,94.8779,265.2579,0,U,54663,999,17352,.10038121E-3,.54E-6,0
ONEWEB-0600,2022-166Y,2026-07-02T04:21:09.122112,13.21825270,.00018794,87.9241,240.9948,99.7255,260.4091,0,U,54664,999,17349,.1425706E-3,.72E-6,0
ONEWEB-0601,2022-166Z,2026-07-02T05:58:01.065216,13.21825323,.00018803,87.9242,240.9978,91.0994,269.0355,0,U,54665,999,17369,.28840786E-3,.132E-5,0
ONEWEB-0602,2022-166AA,2026-07-02T05:08:23.333280,13.21805182,.00024887,87.9245,241.0115,114.8381,245.3012,0,U,54666,999,17353,-.8018034E-2,-.3296E-4,0
ONEWEB-0603,2022-166AB,2026-07-02T05:16:50.743200,13.21829574,.00020044,87.9258,240.9676,96.0605,264.0758,0,U,54667,999,17346,-.12536176E-2,-.505E-5,0
ONEWEB-0604,2022-166AC,2026-07-02T04:59:51.121248,13.21828324,.00021155,87.9250,240.9861,99.8337,260.3036,0,U,54668,999,17342,-.6390609E-4,-.13E-6,0
ONEWEB-0605,2022-166AD,2026-07-02T04:50:12.036480,13.21827725,.00022395,87.9245,240.9995,81.1540,278.9847,0,U,54669,999,17349,.11759918E-3,.62E-6,0
ONEWEB-0606,2022-166AE,2026-07-02T03:32:40.513632,13.21825155,.00020771,87.9245,241.0226,102.1225,258.0142,0,U,54670,999,17354,.11290479E-3,.6E-6,0
ONEWEB-0607,2022-166AF,2026-07-02T04:33:15.721920,13.21825973,.00019246,87.9250,240.9862,96.0678,264.0675,0,U,54671,999,17352,.2586784E-3,.12E-5,0
ONEWEB-0608,2022-166AG,2026-07-02T04:42:53.426880,13.21827894,.00019942,87.9252,240.9819,83.1967,276.9393,0,U,54672,999,17353,-.19733133E-3,-.68E-6,0
ONEWEB-0610,2022-166AH,2026-07-02T04:13:52.988736,13.21825687,.0001667,87.9244,240.9987,82.1846,277.9477,0,U,54673,999,17343,.25548978E-3,.119E-5,0
ONEWEB-0611,2022-166AJ,2026-07-02T04:04:09.864768,13.21825858,.00021807,87.9242,240.9958,100.5821,259.5558,0,U,54674,999,17342,.47442647E-4,.33E-6,0
ONEWEB-0612,2022-166AK,2026-07-02T04:23:34.378656,13.21826590,.00019939,87.9254,240.9903,93.1601,266.9761,0,U,54675,999,17341,-.86996224E-4,-.23E-6,0
ONEWEB-0615,2022-166AL,2026-07-02T05:43:29.411040,13.21827620,.00021301,87.9246,240.9926,105.1650,254.9720,0,U,54676,999,17343,.237931E-5,.14E-6,0
ONEWEB-0655,2022-166AM,2026-07-02T05:09:34.459488,13.21827328,.00017407,87.9248,240.9987,97.6778,262.4554,0,U,54677,999,17342,-.12590859E-3,-.39E-6,0
ONEWEB-0659,2022-166AN,2026-07-02T03:44:47.587776,13.21829164,.00021118,87.9242,241.0097,97.2044,262.9330,0,U,54678,999,17350,.70674372E-4,.42E-6,0
ONEWEB-0685,2022-166AP,2026-07-02T05:33:34.806240,13.21848088,.00018473,87.9240,240.9864,87.9531,272.1815,0,U,54679,999,17340,.15519578E-4,.19E-6,0
ONEWEB-0712,2022-166AQ,2026-07-02T04:24:06.826176,13.16595276,.00015996,87.9087,225.7966,102.1895,257.9415,0,U,54680,999,17403,.24283916E-3,.106E-5,0
ONEWEB-0714,2022-166AR,2026-07-02T03:52:04.799424,13.21825585,.00018374,87.9247,240.9984,104.4413,255.6925,0,U,54681,999,17351,.20599675E-3,.98E-6,0
ONEWEB-0532,2023-004A,2026-07-01T23:48:22.190400,13.17648065,.00021469,87.9130,2.9188,84.3889,275.7487,0,U,55140,999,16953,.86089351E-4,.46E-6,0
ONEWEB-0533,2023-004B,2026-07-02T04:06:29.051712,13.12441358,.00016891,87.8951,347.6903,88.7242,271.4080,0,U,55141,999,17002,-.11423979E-2,-.398E-5,0
ONEWEB-0541,2023-004C,2026-07-01T23:36:47.027232,13.11417364,.00020158,87.8888,18.1129,90.4582,269.6777,0,U,55142,999,16788,.10460952E-2,.383E-5,0
ONEWEB-0543,2023-004D,2026-07-02T02:40:37.191648,13.18686387,.00016893,87.9175,332.4995,101.0004,259.1318,0,U,55143,999,17166,.24170237E-4,.22E-6,0
ONEWEB-0544,2023-004E,2026-07-02T04:20:10.378752,13.18686650,.00019033,87.9173,332.4857,102.5653,257.5692,0,U,55144,999,17167,.16780268E-4,.2E-6,0
ONEWEB-0560,2023-004F,2026-07-02T04:10:26.362272,13.18688109,.00018602,87.9175,332.4765,105.5372,254.5965,0,U,55145,999,17168,.12624709E-3,.63E-6,0
ONEWEB-0565,2023-004G,2026-07-02T04:00:45.436320,13.18686320,.00022288,87.9168,332.5044,100.1953,259.9431,0,U,55146,999,17167,.13017637E-3,.64E-6,0
ONEWEB-0567,2023-004H,2026-07-02T03:51:02.524896,13.18686514,.00021438,87.9174,332.4913,102.9489,257.1883,0,U,55147,999,17167,.21431989E-3,.97E-6,0
ONEWEB-0569,2023-004J,2026-07-02T02:11:26.830464,13.13471089,.00022941,87.8978,317.2537,121.3039,238.8315,0,U,55148,999,17213,-.70625109E-3,-.245E-5,0
ONEWEB-0570,2023-004K,2026-07-02T03:38:53.793600,13.18685343,.00022135,87.9173,332.4906,89.8206,270.3180,0,U,55149,999,17166,-.58639036E-4,-.1E-6,0
ONEWEB-0571,2023-004L,2026-07-02T03:29:11.118048,13.18688408,.00028845,87.9199,332.4928,114.8908,245.2524,0,U,55150,999,17167,-.54105713E-3,-.2E-5,0
