ONEWEB-0597             
1 54663U 22166X   26183.19984244  .00000054  00000+0  10038-3 0  9995
2 54663  87.9244 241.0002 0001961  94.8779 265.2579 13.21827754173524
ONEWEB-0600             
1 54664U 22166Y   26183.18135558  .00000072  00000+0  14257-3 0  9998
2 54664  87.9241 240.9948 0001879  99.7255 260.4091 13.21825270173493
ONEWEB-0601             
1 54665U 22166Z   26183.24862344  .00000132  00000+0  28841-3 0  9997
2 54665  87.9242 240.9978 0001880  91.0994 269.0355 13.21825323173694
ONEWEB-0602             
1 54666U 22166AA  26183.21415895 -.00003296  00000+0 -80180-2 0  9999
2 54666  87.9245 241.0115 0002488 114.8381 245.3012 13.21805182173533
ONEWEB-0603             
1 54667U 22166AB  26183.22003175 -.00000505  00000+0 -12536-2 0  9995
2 54667  87.9258 240.9676 0002004  96.0605 264.0758 13.21829574173460
ONEWEB-0604             
1 54668U 22166AC  26183.20823057 -.00000013  00000+0 -63906-4 0  9996
2 54668  87.9250 240.9861 0002115  99.8337 260.3036 13.21828324173421
ONEWEB-0605             
1 54669U 22166AD  26183.20152820  .00000062  00000+0  11760-3 0  9992
2 54669  87.9245 240.9995 0002239  81.1540 278.9847 13.21827725173497
ONEWEB-0606             
1 54670U 22166AE  26183.14769113  .00000060  00000+0  11290-3 0  9992
2 54670  87.9245 241.0226 0002077 102.1225 258.0142 13.21825155173540
ONEWEB-0607             
1 54671U 22166AF  26183.18976530  .00000120  00000+0  25868-3 0  9993
2 54671  87.9250 240.9862 0001924  96.0678 264.0675 13.21825973173528
ONEWEB-0608             
1 54672U 22166AG  26183.19645170 -.00000068  00000+0 -19733-3 0  9995
2 54672  87.9252 240.9819 0001994  83.1967 276.9393 13.21827894173532
ONEWEB-0610             
1 54673U 22166AH  26183.17630774  .00000119  00000+0  25549-3 0  9995
2 54673  87.9244 240.9987 0001667  82.1846 277.9477 13.21825687173433
ONEWEB-0611             
1 54674U 22166AJ  26183.16955862  .00000033  00000+0  47443-4 0  9996
2 54674  87.9242 240.9958 0002180 100.5821 259.5558 13.21825858173424
ONEWEB-0612             
1 54675U 22166AK  26183.18303679 -.00000023  00000+0 -86996-4 0  9999
2 54675  87.9254 240.9903 0001993  93.1601 266.9761 13.21826590173413
ONEWEB-0615             
1 54676U 22166AL  26183.23853485  .00000014  00000+0  23793-5 0  9996
2 54676  87.9246 240.9926 0002130 105.1650 254.9720 13.21827620173431
ONEWEB-0655             
1 54677U 22166AM  26183.21498217 -.00000039  00000+0 -12591-3 0  9994
2 54677  87.9248 240.9987 0001740  97.6778 262.4554 13.21827328173426
ONEWEB-0659             
1 54678U 22166AN  26183.15610634  .00000042  00000+0  70674-4 0  9996
2 54678  87.9242 241.0097 0002111  97.2044 262.9330 13.21829164173506
ONEWEB-0685             
1 54679U 22166AP  26183.23165285  .00000019  00000+0  15520-4 0  9996
2 54679  87.9240 240.9864 0001847  87.9531 272.1815 13.21848088173403
ONEWEB-0712             
1 54680U 22166AQ  26183.18341234  .00000106  00000+0  24284-3 0  9995
2 54680  87.9087 225.7966 0001599 102.1895 257.9415 13.16595276174034
ONEWEB-0714             
1 54681U 22166AR  26183.16116666  .00000098  00000+0  20600-3 0  9991
2 54681  87.9247 240.9984 0001837 104.4413 255.6925 13.21825585173516
ONEWEB-0532             
1 55140U 23004A   26182.99192350  .00000046  00000+0  86089-4 0  9995
2 55140  87.9130   2.9188 0002146  84.3889 275.7487 13.17648065169531
ONEWEB-0533             
1 55141U 23004B   26183.17116958 -.00000398  00000+0 -11424-2 0  9998
2 55141  87.8951 347.6903 0001689  88.7242 271.4080 13.12441358170027
ONEWEB-0541             
1 55142U 23004C   26182.98387763  .00000383  00000+0  10461-2 0  9993
2 55142  87.8888  18.1129 0002015  90.4582 269.6777 13.11417364167889
ONEWEB-0543             
1 55143U 23004D   26183.11154157  .00000022  00000+0  24170-4 0  9993
2 55143  87.9175 332.4995 0001689 101.0004 259.1318 13.18686387171663
ONEWEB-0544             
1 55144U 23004E   26183.18067568  .00000020  00000+0  16780-4 0  9996
2 55144  87.9173 332.4857 0001903 102.5653 257.5692 13.18686650171675
ONEWEB-0560             
1 55145U 23004F   26183.17391623  .00000063  00000+0  12625-3 0  9998
2 55145  87.9175 332.4765 0001860 105.5372 254.5965 13.18688109171681
ONEWEB-0565             
1 55146U 23004G   26183.16719255  .00000064  00000+0  13018-3 0  9991
2 55146  87.9168 332.5044 0002228 100.1953 259.9431 13.18686320171679
ONEWEB-0567             
1 55147U 23004H   26183.16044589  .00000097  00000+0  21432-3 0  9998
2 55147  87.9174 332.4913 0002143 102.9489 257.1883 13.18686514171677
ONEWEB-0569             
1 55148U 23004J   26183.09128276 -.00000245  00000+0 -70625-3 0  9992
2 55148  87.8978 317.2537 0002294 121.3039 238.8315 13.13471089172137
ONEWEB-0570             
1 55149U 23004K   26183.15201150 -.00000010  00000+0 -58639-4 0  9995
2 55149  87.9173 332.4906 0002213  89.8206 270.3180 13.18685343171663
ONEWEB-0571             
1 55150U 23004L   26183.14526757 -.00000200  00000+0 -54106-3 0  9994
2 55150  87.9199 332.4928 0002884 114.8908 245.2524 13.18688408171678
